[
  {
    "name": "KUIPER-00103",
    "noradId": "65141",
    "line1": "1 65141U 25171K   26197.67969515  .00000961  00000+0  15508-3 0  9993",
    "line2": "2 65141  51.8998 320.1613 0000369  96.0807 264.0197 14.79929491 51812"
  },
  {
    "name": "KUIPER-00104",
    "noradId": "65142",
    "line1": "1 65142U 25171L   26197.55811429  .00001493  00000+0  22473-3 0  9991",
    "line2": "2 65142  51.9032 308.1995 0000344 107.6748 252.4252 14.79936580 51975"
  },
  {
    "name": "KUIPER-00105",
    "noradId": "65143",
    "line1": "1 65143U 25171M   26197.58380499  .00001664  00000+0  24720-3 0  9990",
    "line2": "2 65143  51.9018 315.6867 0000573 120.3426 239.7593 14.79935716 51875"
  },
  {
    "name": "KUIPER-00106",
    "noradId": "65144",
    "line1": "1 65144U 25171N   26197.49699080  .00001450  00000+0  21911-3 0  9992",
    "line2": "2 65144  51.9024 294.8334 0000333 103.6845 256.4154 14.79935880 52167"
  },
  {
    "name": "KUIPER-00107",
    "noradId": "65145",
    "line1": "1 65145U 25171P   26197.46761069  .00001539  00000+0  23083-3 0  9997",
    "line2": "2 65145  51.9016 298.6419 0000349 110.0531 250.0469 14.79938344 52107"
  },
  {
    "name": "KUIPER-00108",
    "noradId": "65146",
    "line1": "1 65146U 25171Q   26197.69048394  .00001540  00000+0  23090-3 0  9992",
    "line2": "2 65146  51.9032 310.1933 0000407 113.6926 246.4079 14.79939327 51960"
  },
  {
    "name": "KUIPER-00109",
    "noradId": "65147",
    "line1": "1 65147U 25171R   26197.66211025  .00001548  00000+0  23196-3 0  9998",
    "line2": "2 65147  51.9026 305.2613 0000355 104.9183 255.1819 14.79933176 52027"
  },
  {
    "name": "KUIPER-00110",
    "noradId": "65148",
    "line1": "1 65148U 25171S   26197.68240208 -.00000603  00000+0 -50176-4 0  9998",
    "line2": "2 65148  51.9009 317.7297 0000380 120.2220 239.8779 14.79929755 51847"
  },
  {
    "name": "KUIPER-00111",
    "noradId": "65149",
    "line1": "1 65149U 25171T   26197.57569617  .00001605  00000+0  23946-3 0  9990",
    "line2": "2 65149  51.8993 323.0791 0000329  91.7428 268.3572 14.79934859 51763"
  },
  {
    "name": "KUIPER-00112",
    "noradId": "65150",
    "line1": "1 65150U 25171U   26197.49329043  .00001626  00000+0  24219-3 0  9997",
    "line2": "2 65150  51.9017 306.0559 0000364 111.7972 248.3029 14.79938006 51990"
  },
  {
    "name": "KUIPER-00114",
    "noradId": "65151",
    "line1": "1 65151U 25171V   26197.77560263  .00000426  00000+0  84928-4 0  9991",
    "line2": "2 65151  51.9003 324.7787 0000542  68.9253 291.1767 14.79932571 51759"
  },
  {
    "name": "KUIPER-00115",
    "noradId": "65152",
    "line1": "1 65152U 25171W   26197.71616087 -.00000152  00000+0  90381-5 0  9990",
    "line2": "2 65152  51.9025 317.5419 0000465 135.2650 224.8350 14.79932967 51850"
  },
  {
    "name": "KUIPER-00116",
    "noradId": "65153",
    "line1": "1 65153U 25171X   26197.67698190  .00001276  00000+0  19629-3 0  9992",
    "line2": "2 65153  51.9011 322.7492 0000402   0.1333 359.9629 14.79948726 51774"
  },
  {
    "name": "KUIPER-00118",
    "noradId": "65154",
    "line1": "1 65154U 25171Y   26197.67429139  .00001669  00000+0  24787-3 0  9995",
    "line2": "2 65154  51.9011 325.2124 0000533 120.9672 239.1343 14.79927167 51742"
  },
  {
    "name": "KUIPER-00119",
    "noradId": "65155",
    "line1": "1 65155U 25171Z   26197.75532507  .00001530  00000+0  22955-3 0  9991",
    "line2": "2 65155  51.9019 312.4495 0000034 290.3645  69.7313 14.79938328 51923"
  },
  {
    "name": "KUIPER-00120",
    "noradId": "65762",
    "line1": "1 65762U 25217A   26197.45191693  .00000974  00000+0  15676-3 0  9993",
    "line2": "2 65762  51.8982 203.6692 0000436  74.5074 285.5937 14.79934195 43805"
  },
  {
    "name": "KUIPER-00132",
    "noradId": "65763",
    "line1": "1 65763U 25217B   26197.74422101  .00020563  00000+0  46108-3 0  9997",
    "line2": "2 65763  51.8547  95.1342 0007493  69.2140 290.9651 15.43358459 45332"
  },
  {
    "name": "KUIPER-00133",
    "noradId": "65764",
    "line1": "1 65764U 25217C   26197.21557642  .00000997  00000+0  15978-3 0  9999",
    "line2": "2 65764  51.9030 204.8244 0000438  73.2289 286.8722 14.79934254 43772"
  },
  {
    "name": "KUIPER-00139",
    "noradId": "65765",
    "line1": "1 65765U 25217D   26197.31813001  .00001112  00000+0  17478-3 0  9992",
    "line2": "2 65765  51.8977 171.8276 0000690  71.6252 288.4785 14.79938638 44242"
  },
  {
    "name": "KUIPER-00142",
    "noradId": "65766",
    "line1": "1 65766U 25217E   26197.20063155  .00001106  00000+0  17409-3 0  9995",
    "line2": "2 65766  51.8986 187.3078 0000544  64.6917 295.4101 14.79940273 44016"
  },
  {
    "name": "KUIPER-00145",
    "noradId": "65767",
    "line1": "1 65767U 25217F   26197.26556259  .00000999  00000+0  16007-3 0  9996",
    "line2": "2 65767  51.8996 189.5437 0000611  63.7803 296.3222 14.79920022 43989"
  },
  {
    "name": "KUIPER-00147",
    "noradId": "65768",
    "line1": "1 65768U 25217G   26197.49912987  .00000816  00000+0  13599-3 0  9997",
    "line2": "2 65768  51.8972 190.9883 0000387  83.1664 276.9343 14.79941449 43980"
  },
  {
    "name": "KUIPER-00148",
    "noradId": "65769",
    "line1": "1 65769U 25217H   26197.83335647  .00053750  00000+0  70339-2 0  9997",
    "line2": "2 65769  51.9032 172.0244 0000443  56.8452 184.5854 14.79869700  5108"
  },
  {
    "name": "KUIPER-00150",
    "noradId": "65770",
    "line1": "1 65770U 25217J   26197.21821906  .00005055  00000+0  69104-3 0  9993",
    "line2": "2 65770  51.9000 202.2673 0000542  69.2598 290.8422 14.79969862 43807"
  },
  {
    "name": "KUIPER-00151",
    "noradId": "65771",
    "line1": "1 65771U 25217K   26197.29383696  .00001034  00000+0  16457-3 0  9997",
    "line2": "2 65771  51.9005 194.4300 0000504  60.9514 299.1499 14.79941614 43920"
  },
  {
    "name": "KUIPER-00152",
    "noradId": "65772",
    "line1": "1 65772U 25217L   26197.34114840  .00001049  00000+0  16662-3 0  9991",
    "line2": "2 65772  51.8997 181.7054 0000525  67.9632 292.1386 14.79931576 44101"
  },
  {
    "name": "KUIPER-00153",
    "noradId": "65773",
    "line1": "1 65773U 25217M   26197.34650384 -.00000044  00000+0  23297-4 0  9998",
    "line2": "2 65773  51.9018 176.7567 0000651  71.8343 288.2690 14.79930317 44176"
  },
  {
    "name": "KUIPER-00155",
    "noradId": "65774",
    "line1": "1 65774U 25217N   26197.84887822  .00001468  00000+0  22157-3 0  9996",
    "line2": "2 65774  51.9026 146.9986 0000799  74.0285 286.0765 14.79938874 44639"
  },
  {
    "name": "KUIPER-00156",
    "noradId": "65775",
    "line1": "1 65775U 25217P   26197.24524779  .00001413  00000+0  21435-3 0  9998",
    "line2": "2 65775  51.9014 177.1862 0000446  80.6754 279.4259 14.79931508 44157"
  },
  {
    "name": "KUIPER-00163",
    "noradId": "65777",
    "line1": "1 65777U 25217R   26197.86225701  .00530726  14919-3  65062-3 0  9997",
    "line2": "2 65777  51.8721 108.8820 0001621 155.8265 204.2828 16.07387254 45140"
  },
  {
    "name": "KUIPER-00165",
    "noradId": "65778",
    "line1": "1 65778U 25217S   26197.23440766 -.00000429  00000+0 -27334-4 0  9996",
    "line2": "2 65778  51.8997 187.1791 0000591  79.9640 280.1389 14.79926068 44010"
  },
  {
    "name": "KUIPER-00166",
    "noradId": "65779",
    "line1": "1 65779U 25217T   26197.88941520  .00006724  00000+0  90911-3 0  9994",
    "line2": "2 65779  51.9038 171.8337 0000752 311.0582  49.0316 14.79978374 44286"
  },
  {
    "name": "KUIPER-00167",
    "noradId": "65780",
    "line1": "1 65780U 25217U   26197.42617997  .00000926  00000+0  15048-3 0  9990",
    "line2": "2 65780  51.8949 196.2400 0000551  63.9540 296.1479 14.79935965 43906"
  },
  {
    "name": "KUIPER-00168",
    "noradId": "65781",
    "line1": "1 65781U 25217V   26197.24254906  .00001073  00000+0  16969-3 0  9995",
    "line2": "2 65781  51.9002 179.6484 0000600  62.8410 297.2614 14.79929483 44120"
  },
  {
    "name": "KUIPER-00169",
    "noradId": "65782",
    "line1": "1 65782U 25217W   26197.43971758 -.00000519  00000+0 -39127-4 0  9996",
    "line2": "2 65782  51.9002 183.7843 0000544 101.2282 258.8741 14.79930880 44080"
  },
  {
    "name": "KUIPER-00170",
    "noradId": "65783",
    "line1": "1 65783U 25217X   26197.50186876  .00001069  00000+0  16925-3 0  9993",
    "line2": "2 65783  51.8980 188.4680 0000542  65.5137 294.5882 14.79929585 44022"
  },
  {
    "name": "KUIPER-00172",
    "noradId": "65785",
    "line1": "1 65785U 25217Z   26197.35190600  .00001278  00000+0  19662-3 0  9991",
    "line2": "2 65785  51.8987 171.6609 0000885  86.7274 273.3789 14.79938257 44244"
  },
  {
    "name": "KUIPER-00173",
    "noradId": "65786",
    "line1": "1 65786U 25217AA  26197.27084470  .00002431  00000+0  34776-3 0  9995",
    "line2": "2 65786  51.9004 184.5270 0000635  72.8557 287.2475 14.79931938 44050"
  },
  {
    "name": "KUIPER-00174",
    "noradId": "65787",
    "line1": "1 65787U 25217AB  26197.14120887 -.00000671  00000+0 -59030-4 0  9992",
    "line2": "2 65787  51.9004 180.1497 0000634  60.6385 299.4640 14.79919193 44101"
  },
  {
    "name": "KUIPER-00176",
    "noradId": "65788",
    "line1": "1 65788U 25217AC  26197.46269711  .00001088  00000+0  17174-3 0  9991",
    "line2": "2 65788  51.8990 193.6625 0000467  68.5055 291.5957 14.79927323 43941"
  },
  {
    "name": "KUIPER-00101",
    "noradId": "65947",
    "line1": "1 65947U 25228A   26197.27216882  .00001453  00000+0  21955-3 0  9998",
    "line2": "2 65947  51.8976 151.9620 0000688  77.4036 282.7003 14.79933499 42277"
  },
  {
    "name": "KUIPER-00113",
    "noradId": "65948",
    "line1": "1 65948U 25228B   26197.85157166  .00000326  00000+0  71779-4 0  9990",
    "line2": "2 65948  51.8994 144.4202 0000822  65.7303 294.3745 14.79929442 42420"
  },
  {
    "name": "KUIPER-00117",
    "noradId": "65949",
    "line1": "1 65949U 25228C   26197.27486583  .00001396  00000+0  21202-3 0  9998",
    "line2": "2 65949  51.8978 149.4700 0000767  71.8162 288.2884 14.79941102 42300"
  }
]